[{"name":"Asia","subcontinents":[{"name":"Southern Asia","countries":[{"tz":"","subcontinent":"","continent":"","latlng":[33,65],"nativeName":"افغانستان","name":"Afghanistan","states":[],"boundaries":[],"currencies":["AFN"],"isoLang":["ps","uz","tk"]},{"tz":"","subcontinent":"","continent":"","latlng":[24,90],"nativeName":"Bangladesh","name":"Bangladesh","states":[],"boundaries":[],"currencies":["BDT"],"isoLang":["bn"]},{"tz":"","subcontinent":"","continent":"","latlng":[27.5,90.5],"nativeName":"ʼbrug-yul","name":"Bhutan","states":[],"boundaries":[],"currencies":["BTN","INR"],"isoLang":["dz"]},{"tz":"","subcontinent":"","continent":"","latlng":[20,77],"nativeName":"भारत","name":"India","states":[],"boundaries":[],"currencies":["INR"],"isoLang":["hi","en"]},{"tz":"","subcontinent":"","continent":"","latlng":[32,53],"nativeName":"Irān","name":"Iran","states":[],"boundaries":[],"currencies":["IRR"],"isoLang":["fa"]},{"tz":"","subcontinent":"","continent":"","latlng":[3.25,73],"nativeName":"Maldives","name":"Maldives","states":[],"boundaries":[],"currencies":["MVR"],"isoLang":["dv"]},{"tz":"","subcontinent":"","continent":"","latlng":[28,84],"nativeName":"नपल","name":"Nepal","states":[],"boundaries":[],"currencies":["NPR"],"isoLang":["ne"]},{"tz":"","subcontinent":"","continent":"","latlng":[30,70],"nativeName":"Pakistan","name":"Pakistan","states":[],"boundaries":[],"currencies":["PKR"],"isoLang":["en","ur"]},{"tz":"","subcontinent":"","continent":"","latlng":[7,81],"nativeName":"śrī laṃkāva","name":"Sri Lanka","states":[],"boundaries":[],"currencies":["LKR"],"isoLang":["si","ta"]}],"boundaries":[]},{"name":"Western Asia","countries":[{"tz":"","subcontinent":"","continent":"","latlng":[40,45],"nativeName":"Հայաստան","name":"Armenia","states":[],"boundaries":[],"currencies":["AMD"],"isoLang":["hy","ru"]},{"tz":"","subcontinent":"","continent":"","latlng":[40.5,47.5],"nativeName":"Azərbaycan","name":"Azerbaijan","states":[],"boundaries":[],"currencies":["AZN"],"isoLang":["az","hy"]},{"tz":"","subcontinent":"","continent":"","latlng":[26,50.55],"nativeName":"‏البحرين","name":"Bahrain","states":[],"boundaries":[],"currencies":["BHD"],"isoLang":["ar"]},{"tz":"","subcontinent":"","continent":"","latlng":[42,43.5],"nativeName":"საქართველო","name":"Georgia","states":[],"boundaries":[],"currencies":["GEL"],"isoLang":["ka"]},{"tz":"","subcontinent":"","continent":"","latlng":[33,44],"nativeName":"العراق","name":"Iraq","states":[],"boundaries":[],"currencies":["IQD"],"isoLang":["ar","ku"]},{"tz":"","subcontinent":"","continent":"","latlng":[31.5,34.75],"nativeName":"יִשְׂרָאֵל","name":"Israel","states":[],"boundaries":[],"currencies":["ILS"],"isoLang":["he","ar"]},{"tz":"","subcontinent":"","continent":"","latlng":[31,36],"nativeName":"الأردن","name":"Jordan","states":[],"boundaries":[],"currencies":["JOD"],"isoLang":["ar"]},{"tz":"","subcontinent":"","continent":"","latlng":[29.5,45.75],"nativeName":"الكويت","name":"Kuwait","states":[],"boundaries":[],"currencies":["KWD"],"isoLang":["ar"]},{"tz":"","subcontinent":"","continent":"","latlng":[33.83333333,35.83333333],"nativeName":"لبنان","name":"Lebanon","states":[],"boundaries":[],"currencies":["LBP"],"isoLang":["ar","fr"]},{"tz":"","subcontinent":"","continent":"","latlng":[21,57],"nativeName":"عمان","name":"Oman","states":[],"boundaries":[],"currencies":["OMR"],"isoLang":["ar"]},{"tz":"","subcontinent":"","continent":"","latlng":[25.5,51.25],"nativeName":"قطر","name":"Qatar","states":[],"boundaries":[],"currencies":["QAR"],"isoLang":["ar"]},{"tz":"","subcontinent":"","continent":"","latlng":[25,45],"nativeName":"العربية السعودية","name":"Saudi Arabia","states":[],"boundaries":[],"currencies":["SAR"],"isoLang":["ar"]},{"tz":"","subcontinent":"","continent":"","latlng":[35,38],"nativeName":"سوريا","name":"Syria","states":[],"boundaries":[],"currencies":["SYP"],"isoLang":["ar"]},{"tz":"","subcontinent":"","continent":"","latlng":[39,35],"nativeName":"Türkiye","name":"Turkey","states":[],"boundaries":[],"currencies":["TRY"],"isoLang":["tr"]},{"tz":"","subcontinent":"","continent":"","latlng":[24,54],"nativeName":"دولة الإمارات العربية المتحدة","name":"United Arab Emirates","states":[],"boundaries":[],"currencies":["AED"],"isoLang":["ar"]},{"tz":"","subcontinent":"","continent":"","latlng":[15,48],"nativeName":"اليَمَن","name":"Yemen","states":[],"boundaries":[],"currencies":["YER"],"isoLang":["ar"]}],"boundaries":[]},{"name":"South-Eastern Asia","countries":[{"tz":"","subcontinent":"","continent":"","latlng":[4.5,114.66666666],"nativeName":"Negara Brunei Darussalam","name":"Brunei","states":[],"boundaries":[],"currencies":["BND"],"isoLang":["ms"]},{"tz":"","subcontinent":"","continent":"","latlng":[13,105],"nativeName":"Kâmpŭchéa","name":"Cambodia","states":[],"boundaries":[],"currencies":["KHR"],"isoLang":["km"]},{"tz":"","subcontinent":"","continent":"","latlng":[-5,120],"nativeName":"Indonesia","name":"Indonesia","states":[],"boundaries":[],"currencies":["IDR"],"isoLang":["id"]},{"tz":"","subcontinent":"","continent":"","latlng":[18,105],"nativeName":"ສປປລາວ","name":"Laos","states":[],"boundaries":[],"currencies":["LAK"],"isoLang":["lo"]},{"tz":"","subcontinent":"","continent":"","latlng":[2.5,112.5],"nativeName":"Malaysia","name":"Malaysia","states":[],"boundaries":[],"currencies":["MYR"],"isoLang":[]},{"tz":"","subcontinent":"","continent":"","latlng":[13,122],"nativeName":"Pilipinas","name":"Philippines","states":[],"boundaries":[],"currencies":["PHP"],"isoLang":["en"]},{"tz":"","subcontinent":"","continent":"","latlng":[1.36666666,103.8],"nativeName":"Singapore","name":"Singapore","states":[],"boundaries":[],"currencies":["SGD"],"isoLang":["en","ms","ta","zh"]},{"tz":"","subcontinent":"","continent":"","latlng":[15,100],"nativeName":"ประเทศไทย","name":"Thailand","states":[],"boundaries":[],"currencies":["THB"],"isoLang":["th"]},{"tz":"","subcontinent":"","continent":"","latlng":[-8.83333333,125.91666666],"nativeName":"Timor-Leste","name":"East Timor","states":[],"boundaries":[],"currencies":["USD"],"isoLang":["pt"]},{"tz":"","subcontinent":"","continent":"","latlng":[16.16666666,107.83333333],"nativeName":"Việt Nam","name":"Vietnam","states":[],"boundaries":[],"currencies":["VND"],"isoLang":["vi"]}],"boundaries":[]},{"name":"Eastern Asia","countries":[{"tz":"","subcontinent":"","continent":"","latlng":[35,105],"nativeName":"中国","name":"China","states":[],"boundaries":[],"currencies":["CNY"],"isoLang":["zh"]},{"tz":"","subcontinent":"","continent":"","latlng":[22.25,114.16666666],"nativeName":"香港","name":"Hong Kong","states":[],"boundaries":[],"currencies":["HKD"],"isoLang":["en","zh"]},{"tz":"","subcontinent":"","continent":"","latlng":[36,138],"nativeName":"日本","name":"Japan","states":[],"boundaries":[],"currencies":["JPY"],"isoLang":["ja"]},{"tz":"","subcontinent":"","continent":"","latlng":[40,127],"nativeName":"북한","name":"North Korea","states":[],"boundaries":[],"currencies":["KPW"],"isoLang":["ko"]},{"tz":"","subcontinent":"","continent":"","latlng":[37,127.5],"nativeName":"대한민국","name":"South Korea","states":[],"boundaries":[],"currencies":["KRW"],"isoLang":["ko"]},{"tz":"","subcontinent":"","continent":"","latlng":[22.16666666,113.55],"nativeName":"澳門","name":"Macau","states":[],"boundaries":[],"currencies":["MOP"],"isoLang":["zh","pt"]},{"tz":"","subcontinent":"","continent":"","latlng":[46,105],"nativeName":"Монгол улс","name":"Mongolia","states":[],"boundaries":[],"currencies":["MNT"],"isoLang":["mn"]},{"tz":"","subcontinent":"","continent":"","latlng":[23.5,121],"nativeName":"臺灣","name":"Taiwan","states":[],"boundaries":[],"currencies":["TWD"],"isoLang":["zh"]}],"boundaries":[]},{"name":"Central Asia","countries":[{"tz":"","subcontinent":"","continent":"","latlng":[48,68],"nativeName":"Қазақстан","name":"Kazakhstan","states":[],"boundaries":[],"currencies":["KZT"],"isoLang":["kk","ru"]},{"tz":"","subcontinent":"","continent":"","latlng":[41,75],"nativeName":"Кыргызстан","name":"Kyrgyzstan","states":[],"boundaries":[],"currencies":["KGS"],"isoLang":["ky","ru"]},{"tz":"","subcontinent":"","continent":"","latlng":[39,71],"nativeName":"Тоҷикистон","name":"Tajikistan","states":[],"boundaries":[],"currencies":["TJS"],"isoLang":["tg","ru"]},{"tz":"","subcontinent":"","continent":"","latlng":[40,60],"nativeName":"Türkmenistan","name":"Turkmenistan","states":[],"boundaries":[],"currencies":["TMT"],"isoLang":["tk","ru"]},{"tz":"","subcontinent":"","continent":"","latlng":[41,64],"nativeName":"O‘zbekiston","name":"Uzbekistan","states":[],"boundaries":[],"currencies":["UZS"],"isoLang":["uz","ru"]}],"boundaries":[]}],"boundaries":[]},{"name":"Europe","subcontinents":[{"name":"Southern Europe","countries":[{"tz":"","subcontinent":"","continent":"","latlng":[41,20],"nativeName":"Shqipëria","name":"Albania","states":[],"boundaries":[],"currencies":["ALL"],"isoLang":["sq"]},{"tz":"","subcontinent":"","continent":"","latlng":[44,18],"nativeName":"Bosna i Hercegovina","name":"Bosnia and Herzegovina","states":[],"boundaries":[],"currencies":["BAM"],"isoLang":["bs","hr","sr"]},{"tz":"","subcontinent":"","continent":"","latlng":[45.16666666,15.5],"nativeName":"Hrvatska","name":"Croatia","states":[],"boundaries":[],"currencies":["HRK"],"isoLang":["hr"]},{"tz":"","subcontinent":"","continent":"","latlng":[35,33],"nativeName":"Κύπρος","name":"Cyprus","states":[],"boundaries":[],"currencies":["EUR"],"isoLang":["el","tr","hy"]},{"tz":"","subcontinent":"","continent":"","latlng":[36.13333333,-5.35],"nativeName":"Gibraltar","name":"Gibraltar","states":[],"boundaries":[],"currencies":["GIP"],"isoLang":["en"]},{"tz":"","subcontinent":"","continent":"","latlng":[39,22],"nativeName":"Ελλάδα","name":"Greece","states":[],"boundaries":[],"currencies":["EUR"],"isoLang":["el"]},{"tz":"Europe/Rome","subcontinent":"","continent":"","latlng":[42.83333333,12.83333333],"nativeName":"Italia","name":"Italy","states":[],"boundaries":[],"currencies":["EUR"],"isoLang":["it"]},{"tz":"","subcontinent":"","continent":"","latlng":[41.83333333,22],"nativeName":"Македонија","name":"Republic of Macedonia","states":[],"boundaries":[],"currencies":["MKD"],"isoLang":["mk"]},{"tz":"","subcontinent":"","continent":"","latlng":[35.83333333,14.58333333],"nativeName":"Malta","name":"Malta","states":[],"boundaries":[],"currencies":["EUR"],"isoLang":["mt","en"]},{"tz":"","subcontinent":"","continent":"","latlng":[39.5,-8],"nativeName":"Portugal","name":"Portugal","states":[],"boundaries":[],"currencies":["EUR"],"isoLang":["pt"]},{"tz":"","subcontinent":"","continent":"","latlng":[43.76666666,12.41666666],"nativeName":"San Marino","name":"San Marino","states":[],"boundaries":[],"currencies":["EUR"],"isoLang":["it"]},{"tz":"","subcontinent":"","continent":"","latlng":[46.11666666,14.81666666],"nativeName":"Slovenija","name":"Slovenia","states":[],"boundaries":[],"currencies":["EUR"],"isoLang":["sl"]},{"tz":"","subcontinent":"","continent":"","latlng":[40,-4],"nativeName":"España","name":"Spain","states":[],"boundaries":[],"currencies":["EUR"],"isoLang":["es"]}],"boundaries":[]},{"name":"Western Europe","countries":[{"tz":"","subcontinent":"","continent":"","latlng":[47.33333333,13.33333333],"nativeName":"Österreich","name":"Austria","states":[],"boundaries":[],"currencies":["EUR"],"isoLang":["de"]},{"tz":"","subcontinent":"","continent":"","latlng":[50.83333333,4],"nativeName":"België","name":"Belgium","states":[],"boundaries":[],"currencies":["EUR"],"isoLang":["nl","fr","de"]},{"tz":"","subcontinent":"","continent":"","latlng":[46,2],"nativeName":"France","name":"France","states":[],"boundaries":[],"currencies":["EUR"],"isoLang":["fr"]},{"tz":"","subcontinent":"","continent":"","latlng":[51,9],"nativeName":"Deutschland","name":"Germany","states":[],"boundaries":[],"currencies":["EUR"],"isoLang":["de"]},{"tz":"","subcontinent":"","continent":"","latlng":[47.26666666,9.53333333],"nativeName":"Liechtenstein","name":"Liechtenstein","states":[],"boundaries":[],"currencies":["CHF"],"isoLang":["de"]},{"tz":"","subcontinent":"","continent":"","latlng":[49.75,6.16666666],"nativeName":"Luxembourg","name":"Luxembourg","states":[],"boundaries":[],"currencies":["EUR"],"isoLang":["fr","de","lb"]},{"tz":"","subcontinent":"","continent":"","latlng":[43.73333333,7.4],"nativeName":"Monaco","name":"Monaco","states":[],"boundaries":[],"currencies":["EUR"],"isoLang":["fr"]},{"tz":"","subcontinent":"","continent":"","latlng":[52.5,5.75],"nativeName":"Nederland","name":"Netherlands","states":[],"boundaries":[],"currencies":["EUR"],"isoLang":["nl"]},{"tz":"","subcontinent":"","continent":"","latlng":[47,8],"nativeName":"Schweiz","name":"Switzerland","states":[],"boundaries":[],"currencies":["CHE","CHF","CHW"],"isoLang":["de","fr","it"]}],"boundaries":[]},{"name":"Eastern Europe","countries":[{"tz":"","subcontinent":"","continent":"","latlng":[53,28],"nativeName":"Белару́сь","name":"Belarus","states":[],"boundaries":[],"currencies":["BYR"],"isoLang":["be","ru"]},{"tz":"","subcontinent":"","continent":"","latlng":[43,25],"nativeName":"България","name":"Bulgaria","states":[],"boundaries":[],"currencies":["BGN"],"isoLang":["bg"]},{"tz":"","subcontinent":"","continent":"","latlng":[49.75,15.5],"nativeName":"Česká republika","name":"Czech Republic","states":[],"boundaries":[],"currencies":["CZK"],"isoLang":["cs","sk"]},{"tz":"","subcontinent":"","continent":"","latlng":[47,20],"nativeName":"Magyarország","name":"Hungary","states":[],"boundaries":[],"currencies":["HUF"],"isoLang":["hu"]},{"tz":"","subcontinent":"","continent":"","latlng":[47,29],"nativeName":"Moldova","name":"Moldova","states":[],"boundaries":[],"currencies":["MDL"],"isoLang":["ro"]},{"tz":"","subcontinent":"","continent":"","latlng":[52,20],"nativeName":"Polska","name":"Poland","states":[],"boundaries":[],"currencies":["PLN"],"isoLang":["pl"]},{"tz":"","subcontinent":"","continent":"","latlng":[46,25],"nativeName":"România","name":"Romania","states":[],"boundaries":[],"currencies":["RON"],"isoLang":["ro"]},{"tz":"","subcontinent":"","continent":"","latlng":[60,100],"nativeName":"Россия","name":"Russia","states":[],"boundaries":[],"currencies":["RUB"],"isoLang":["ru"]},{"tz":"","subcontinent":"","continent":"","latlng":[48.66666666,19.5],"nativeName":"Slovensko","name":"Slovakia","states":[],"boundaries":[],"currencies":["EUR"],"isoLang":["sk"]},{"tz":"","subcontinent":"","continent":"","latlng":[49,32],"nativeName":"Україна","name":"Ukraine","states":[],"boundaries":[],"currencies":["UAH"],"isoLang":["uk"]}],"boundaries":[]},{"name":"Northern Europe","countries":[{"tz":"","subcontinent":"","continent":"","latlng":[56,10],"nativeName":"Danmark","name":"Denmark","states":[],"boundaries":[],"currencies":["DKK"],"isoLang":["da"]},{"tz":"","subcontinent":"","continent":"","latlng":[59,26],"nativeName":"Eesti","name":"Estonia","states":[],"boundaries":[],"currencies":["EUR"],"isoLang":["et"]},{"tz":"","subcontinent":"","continent":"","latlng":[62,-7],"nativeName":"Føroyar","name":"Faroe Islands","states":[],"boundaries":[],"currencies":["DKK"],"isoLang":["fo"]},{"tz":"","subcontinent":"","continent":"","latlng":[64,26],"nativeName":"Suomi","name":"Finland","states":[],"boundaries":[],"currencies":["EUR"],"isoLang":["fi","sv"]},{"tz":"","subcontinent":"","continent":"","latlng":[49.46666666,-2.58333333],"nativeName":"Guernsey","name":"Guernsey","states":[],"boundaries":[],"currencies":["GBP"],"isoLang":["en","fr"]},{"tz":"","subcontinent":"","continent":"","latlng":[65,-18],"nativeName":"Ísland","name":"Iceland","states":[],"boundaries":[],"currencies":["ISK"],"isoLang":["is"]},{"tz":"","subcontinent":"","continent":"","latlng":[53,-8],"nativeName":"Éire","name":"Republic of Ireland","states":[],"boundaries":[],"currencies":["EUR"],"isoLang":["ga","en"]},{"tz":"","subcontinent":"","continent":"","latlng":[49.25,-2.16666666],"nativeName":"Jersey","name":"Jersey","states":[],"boundaries":[],"currencies":["GBP"],"isoLang":["en","fr"]},{"tz":"","subcontinent":"","continent":"","latlng":[57,25],"nativeName":"Latvija","name":"Latvia","states":[],"boundaries":[],"currencies":["EUR"],"isoLang":["lv"]},{"tz":"","subcontinent":"","continent":"","latlng":[56,24],"nativeName":"Lietuva","name":"Lithuania","states":[],"boundaries":[],"currencies":["EUR"],"isoLang":["lt"]},{"tz":"","subcontinent":"","continent":"","latlng":[54.25,-4.5],"nativeName":"Isle of Man","name":"Isle of Man","states":[],"boundaries":[],"currencies":["GBP"],"isoLang":["en","gv"]},{"tz":"","subcontinent":"","continent":"","latlng":[62,10],"nativeName":"Norge","name":"Norway","states":[],"boundaries":[],"currencies":["NOK"],"isoLang":["no","nb","nn"]},{"tz":"","subcontinent":"","continent":"","latlng":[78,20],"nativeName":"Svalbard og Jan Mayen","name":"Svalbard and Jan Mayen","states":[],"boundaries":[],"currencies":["NOK"],"isoLang":["no"]},{"tz":"","subcontinent":"","continent":"","latlng":[62,15],"nativeName":"Sverige","name":"Sweden","states":[],"boundaries":[],"currencies":["SEK"],"isoLang":["sv"]},{"tz":"","subcontinent":"","continent":"","latlng":[54,-2],"nativeName":"United Kingdom","name":"United Kingdom","states":[],"boundaries":[],"currencies":["GBP"],"isoLang":["en"]}],"boundaries":[]}],"boundaries":[]},{"name":"Africa","subcontinents":[{"name":"Northern Africa","countries":[{"tz":"","subcontinent":"","continent":"","latlng":[28,3],"nativeName":"الجزائر","name":"Algeria","states":[],"boundaries":[],"currencies":["DZD"],"isoLang":["ar"]},{"tz":"","subcontinent":"","continent":"","latlng":[27,30],"nativeName":"مصر‎","name":"Egypt","states":[],"boundaries":[],"currencies":["EGP"],"isoLang":["ar"]},{"tz":"","subcontinent":"","continent":"","latlng":[25,17],"nativeName":"‏ليبيا","name":"Libya","states":[],"boundaries":[],"currencies":["LYD"],"isoLang":["ar"]},{"tz":"","subcontinent":"","continent":"","latlng":[32,-5],"nativeName":"المغرب","name":"Morocco","states":[],"boundaries":[],"currencies":["MAD"],"isoLang":["ar"]},{"tz":"","subcontinent":"","continent":"","latlng":[15,30],"nativeName":"السودان","name":"Sudan","states":[],"boundaries":[],"currencies":["SDG"],"isoLang":["ar","en"]},{"tz":"","subcontinent":"","continent":"","latlng":[34,9],"nativeName":"تونس","name":"Tunisia","states":[],"boundaries":[],"currencies":["TND"],"isoLang":["ar"]},{"tz":"","subcontinent":"","continent":"","latlng":[24.5,-13],"nativeName":"الصحراء الغربية","name":"Western Sahara","states":[],"boundaries":[],"currencies":["MAD","DZD","MRO"],"isoLang":["es"]}],"boundaries":[]},{"name":"Middle Africa","countries":[{"tz":"","subcontinent":"","continent":"","latlng":[-12.5,18.5],"nativeName":"Angola","name":"Angola","states":[],"boundaries":[],"currencies":["AOA"],"isoLang":["pt"]},{"tz":"","subcontinent":"","continent":"","latlng":[6,12],"nativeName":"Cameroon","name":"Cameroon","states":[],"boundaries":[],"currencies":["XAF"],"isoLang":["en","fr"]},{"tz":"","subcontinent":"","continent":"","latlng":[7,21],"nativeName":"Ködörösêse tî Bêafrîka","name":"Central African Republic","states":[],"boundaries":[],"currencies":["XAF"],"isoLang":["fr","sg"]},{"tz":"","subcontinent":"","continent":"","latlng":[15,19],"nativeName":"Tchad","name":"Chad","states":[],"boundaries":[],"currencies":["XAF"],"isoLang":["fr","ar"]},{"tz":"","subcontinent":"","continent":"","latlng":[-1,15],"nativeName":"République du Congo","name":"Republic of the Congo","states":[],"boundaries":[],"currencies":["XAF"],"isoLang":["fr","ln"]},{"tz":"","subcontinent":"","continent":"","latlng":[0,25],"nativeName":"République démocratique du Congo","name":"Democratic Republic of the Congo","states":[],"boundaries":[],"currencies":["CDF"],"isoLang":["fr","ln","kg","sw","lu"]},{"tz":"","subcontinent":"","continent":"","latlng":[2,10],"nativeName":"Guinea Ecuatorial","name":"Equatorial Guinea","states":[],"boundaries":[],"currencies":["XAF"],"isoLang":["es","fr"]},{"tz":"","subcontinent":"","continent":"","latlng":[-1,11.75],"nativeName":"Gabon","name":"Gabon","states":[],"boundaries":[],"currencies":["XAF"],"isoLang":["fr"]},{"tz":"","subcontinent":"","continent":"","latlng":[1,7],"nativeName":"São Tomé e Príncipe","name":"São Tomé and Príncipe","states":[],"boundaries":[],"currencies":["STD"],"isoLang":["pt"]},{"tz":"","subcontinent":"","continent":"","latlng":[7,30],"nativeName":"South Sudan","name":"South Sudan","states":[],"boundaries":[],"currencies":["SSP"],"isoLang":["en"]}],"boundaries":[]},{"name":"Western Africa","countries":[{"tz":"","subcontinent":"","continent":"","latlng":[9.5,2.25],"nativeName":"Bénin","name":"Benin","states":[],"boundaries":[],"currencies":["XOF"],"isoLang":["fr"]},{"tz":"","subcontinent":"","continent":"","latlng":[13,-2],"nativeName":"Burkina Faso","name":"Burkina Faso","states":[],"boundaries":[],"currencies":["XOF"],"isoLang":["fr","ff"]},{"tz":"","subcontinent":"","continent":"","latlng":[16,-24],"nativeName":"Cabo Verde","name":"Cape Verde","states":[],"boundaries":[],"currencies":["CVE"],"isoLang":["pt"]},{"tz":"","subcontinent":"","continent":"","latlng":[8,-5],"nativeName":"Côte d'Ivoire","name":"Ivory Coast","states":[],"boundaries":[],"currencies":["XOF"],"isoLang":["fr"]},{"tz":"","subcontinent":"","continent":"","latlng":[13.46666666,-16.56666666],"nativeName":"Gambia","name":"The Gambia","states":[],"boundaries":[],"currencies":["GMD"],"isoLang":["en"]},{"tz":"","subcontinent":"","continent":"","latlng":[8,-2],"nativeName":"Ghana","name":"Ghana","states":[],"boundaries":[],"currencies":["GHS"],"isoLang":["en"]},{"tz":"","subcontinent":"","continent":"","latlng":[11,-10],"nativeName":"Guinée","name":"Guinea","states":[],"boundaries":[],"currencies":["GNF"],"isoLang":["fr","ff"]},{"tz":"","subcontinent":"","continent":"","latlng":[12,-15],"nativeName":"Guiné-Bissau","name":"Guinea-Bissau","states":[],"boundaries":[],"currencies":["XOF"],"isoLang":["pt"]},{"tz":"","subcontinent":"","continent":"","latlng":[6.5,-9.5],"nativeName":"Liberia","name":"Liberia","states":[],"boundaries":[],"currencies":["LRD"],"isoLang":["en"]},{"tz":"","subcontinent":"","continent":"","latlng":[17,-4],"nativeName":"Mali","name":"Mali","states":[],"boundaries":[],"currencies":["XOF"],"isoLang":["fr"]},{"tz":"","subcontinent":"","continent":"","latlng":[20,-12],"nativeName":"موريتانيا","name":"Mauritania","states":[],"boundaries":[],"currencies":["MRO"],"isoLang":["ar"]},{"tz":"","subcontinent":"","continent":"","latlng":[16,8],"nativeName":"Niger","name":"Niger","states":[],"boundaries":[],"currencies":["XOF"],"isoLang":["fr"]},{"tz":"","subcontinent":"","continent":"","latlng":[10,8],"nativeName":"Nigeria","name":"Nigeria","states":[],"boundaries":[],"currencies":["NGN"],"isoLang":["en"]},{"tz":"","subcontinent":"","continent":"","latlng":[-15.95,-5.7],"nativeName":"Saint Helena","name":"Saint Helena","states":[],"boundaries":[],"currencies":["SHP"],"isoLang":["en"]},{"tz":"","subcontinent":"","continent":"","latlng":[14,-14],"nativeName":"Sénégal","name":"Senegal","states":[],"boundaries":[],"currencies":["XOF"],"isoLang":["fr"]},{"tz":"","subcontinent":"","continent":"","latlng":[8.5,-11.5],"nativeName":"Sierra Leone","name":"Sierra Leone","states":[],"boundaries":[],"currencies":["SLL"],"isoLang":["en"]},{"tz":"","subcontinent":"","continent":"","latlng":[8,1.16666666],"nativeName":"Togo","name":"Togo","states":[],"boundaries":[],"currencies":["XOF"],"isoLang":["fr"]}],"boundaries":[]},{"name":"Southern Africa","countries":[{"tz":"","subcontinent":"","continent":"","latlng":[-22,24],"nativeName":"Botswana","name":"Botswana","states":[],"boundaries":[],"currencies":["BWP"],"isoLang":["en","tn"]},{"tz":"","subcontinent":"","continent":"","latlng":[-29.5,28.5],"nativeName":"Lesotho","name":"Lesotho","states":[],"boundaries":[],"currencies":["LSL","ZAR"],"isoLang":["en","st"]},{"tz":"","subcontinent":"","continent":"","latlng":[-22,17],"nativeName":"Namibia","name":"Namibia","states":[],"boundaries":[],"currencies":["NAD","ZAR"],"isoLang":["en","af"]},{"tz":"","subcontinent":"","continent":"","latlng":[-29,24],"nativeName":"South Africa","name":"South Africa","states":[],"boundaries":[],"currencies":["ZAR"],"isoLang":["af","en","nr","st","ss","tn","ts","ve","xh","zu"]},{"tz":"","subcontinent":"","continent":"","latlng":[-26.5,31.5],"nativeName":"Swaziland","name":"Swaziland","states":[],"boundaries":[],"currencies":["SZL"],"isoLang":["en","ss"]}],"boundaries":[]},{"name":"Eastern Africa","countries":[{"tz":"","subcontinent":"","continent":"","latlng":[-6,71.5],"nativeName":"British Indian Ocean Territory","name":"British Indian Ocean Territory","states":[],"boundaries":[],"currencies":["USD"],"isoLang":["en"]},{"tz":"","subcontinent":"","continent":"","latlng":[-3.5,30],"nativeName":"Burundi","name":"Burundi","states":[],"boundaries":[],"currencies":["BIF"],"isoLang":["fr","rn"]},{"tz":"","subcontinent":"","continent":"","latlng":[-12.16666666,44.25],"nativeName":"Komori","name":"Comoros","states":[],"boundaries":[],"currencies":["KMF"],"isoLang":["ar","fr"]},{"tz":"","subcontinent":"","continent":"","latlng":[11.5,43],"nativeName":"Djibouti","name":"Djibouti","states":[],"boundaries":[],"currencies":["DJF"],"isoLang":["fr","ar"]},{"tz":"","subcontinent":"","continent":"","latlng":[15,39],"nativeName":"ኤርትራ","name":"Eritrea","states":[],"boundaries":[],"currencies":["ERN"],"isoLang":["ti","ar","en"]},{"tz":"","subcontinent":"","continent":"","latlng":[8,38],"nativeName":"ኢትዮጵያ","name":"Ethiopia","states":[],"boundaries":[],"currencies":["ETB"],"isoLang":["am"]},{"tz":"","subcontinent":"","continent":"","latlng":[1,38],"nativeName":"Kenya","name":"Kenya","states":[],"boundaries":[],"currencies":["KES"],"isoLang":["en","sw"]},{"tz":"","subcontinent":"","continent":"","latlng":[-20,47],"nativeName":"Madagasikara","name":"Madagascar","states":[],"boundaries":[],"currencies":["MGA"],"isoLang":["fr","mg"]},{"tz":"","subcontinent":"","continent":"","latlng":[-13.5,34],"nativeName":"Malawi","name":"Malawi","states":[],"boundaries":[],"currencies":["MWK"],"isoLang":["en","ny"]},{"tz":"","subcontinent":"","continent":"","latlng":[-20.28333333,57.55],"nativeName":"Maurice","name":"Mauritius","states":[],"boundaries":[],"currencies":["MUR"],"isoLang":["en"]},{"tz":"","subcontinent":"","continent":"","latlng":[-12.83333333,45.16666666],"nativeName":"Mayotte","name":"Mayotte","states":[],"boundaries":[],"currencies":["EUR"],"isoLang":["fr"]},{"tz":"","subcontinent":"","continent":"","latlng":[-18.25,35],"nativeName":"Moçambique","name":"Mozambique","states":[],"boundaries":[],"currencies":["MZN"],"isoLang":["pt"]},{"tz":"","subcontinent":"","continent":"","latlng":[-21.15,55.5],"nativeName":"La Réunion","name":"Réunion","states":[],"boundaries":[],"currencies":["EUR"],"isoLang":["fr"]},{"tz":"","subcontinent":"","continent":"","latlng":[-2,30],"nativeName":"Rwanda","name":"Rwanda","states":[],"boundaries":[],"currencies":["RWF"],"isoLang":["rw","en","fr"]},{"tz":"","subcontinent":"","continent":"","latlng":[-4.58333333,55.66666666],"nativeName":"Seychelles","name":"Seychelles","states":[],"boundaries":[],"currencies":["SCR"],"isoLang":["fr","en"]},{"tz":"","subcontinent":"","continent":"","latlng":[10,49],"nativeName":"Soomaaliya","name":"Somalia","states":[],"boundaries":[],"currencies":["SOS"],"isoLang":["so","ar"]},{"tz":"","subcontinent":"","continent":"","latlng":[-6,35],"nativeName":"Tanzania","name":"Tanzania","states":[],"boundaries":[],"currencies":["TZS"],"isoLang":["sw","en"]},{"tz":"","subcontinent":"","continent":"","latlng":[1,32],"nativeName":"Uganda","name":"Uganda","states":[],"boundaries":[],"currencies":["UGX"],"isoLang":["en","sw"]},{"tz":"","subcontinent":"","continent":"","latlng":[-15,30],"nativeName":"Zambia","name":"Zambia","states":[],"boundaries":[],"currencies":["ZMK"],"isoLang":["en"]},{"tz":"","subcontinent":"","continent":"","latlng":[-20,30],"nativeName":"Zimbabwe","name":"Zimbabwe","states":[],"boundaries":[],"currencies":["USD"],"isoLang":["en","sn","nd"]}],"boundaries":[]}],"boundaries":[]},{"name":"Oceania","subcontinents":[{"name":"Polynesia","countries":[{"tz":"","subcontinent":"","continent":"","latlng":[-14.33333333,-170],"nativeName":"American Samoa","name":"American Samoa","states":[],"boundaries":[],"currencies":["USD"],"isoLang":["en","sm"]},{"tz":"","subcontinent":"","continent":"","latlng":[-21.23333333,-159.76666666],"nativeName":"Cook Islands","name":"Cook Islands","states":[],"boundaries":[],"currencies":["NZD"],"isoLang":["en"]},{"tz":"","subcontinent":"","continent":"","latlng":[-15,-140],"nativeName":"Polynésie française","name":"French Polynesia","states":[],"boundaries":[],"currencies":["XPF"],"isoLang":["fr"]},{"tz":"","subcontinent":"","continent":"","latlng":[-19.03333333,-169.86666666],"nativeName":"Niuē","name":"Niue","states":[],"boundaries":[],"currencies":["NZD"],"isoLang":["en"]},{"tz":"","subcontinent":"","continent":"","latlng":[-25.06666666,-130.1],"nativeName":"Pitcairn Islands","name":"Pitcairn Islands","states":[],"boundaries":[],"currencies":["NZD"],"isoLang":["en"]},{"tz":"","subcontinent":"","continent":"","latlng":[-13.58333333,-172.33333333],"nativeName":"Samoa","name":"Samoa","states":[],"boundaries":[],"currencies":["WST"],"isoLang":["sm","en"]},{"tz":"","subcontinent":"","continent":"","latlng":[-9,-172],"nativeName":"Tokelau","name":"Tokelau","states":[],"boundaries":[],"currencies":["NZD"],"isoLang":["en"]},{"tz":"","subcontinent":"","continent":"","latlng":[-20,-175],"nativeName":"Tonga","name":"Tonga","states":[],"boundaries":[],"currencies":["TOP"],"isoLang":["en","to"]},{"tz":"","subcontinent":"","continent":"","latlng":[-8,178],"nativeName":"Tuvalu","name":"Tuvalu","states":[],"boundaries":[],"currencies":["AUD"],"isoLang":["en"]},{"tz":"","subcontinent":"","continent":"","latlng":[-13.3,-176.2],"nativeName":"Wallis et Futuna","name":"Wallis and Futuna","states":[],"boundaries":[],"currencies":["XPF"],"isoLang":["fr"]}],"boundaries":[]},{"name":"Australia and New Zealand","countries":[{"tz":"","subcontinent":"","continent":"","latlng":[-27,133],"nativeName":"Australia","name":"Australia","states":[],"boundaries":[],"currencies":["AUD"],"isoLang":["en"]},{"tz":"","subcontinent":"","continent":"","latlng":[-10.5,105.66666666],"nativeName":"Christmas Island","name":"Christmas Island","states":[],"boundaries":[],"currencies":["AUD"],"isoLang":["en"]},{"tz":"","subcontinent":"","continent":"","latlng":[-12.5,96.83333333],"nativeName":"Cocos (Keeling) Islands","name":"Cocos (Keeling) Islands","states":[],"boundaries":[],"currencies":["AUD"],"isoLang":["en"]},{"tz":"","subcontinent":"","continent":"","latlng":[-41,174],"nativeName":"New Zealand","name":"New Zealand","states":[],"boundaries":[],"currencies":["NZD"],"isoLang":["en","mi"]},{"tz":"","subcontinent":"","continent":"","latlng":[-29.03333333,167.95],"nativeName":"Norfolk Island","name":"Norfolk Island","states":[],"boundaries":[],"currencies":["AUD"],"isoLang":["en"]}],"boundaries":[]},{"name":"Melanesia","countries":[{"tz":"","subcontinent":"","continent":"","latlng":[-18,175],"nativeName":"Fiji","name":"Fiji","states":[],"boundaries":[],"currencies":["FJD"],"isoLang":["en","fj","hi","ur"]},{"tz":"","subcontinent":"","continent":"","latlng":[-21.5,165.5],"nativeName":"Nouvelle-Calédonie","name":"New Caledonia","states":[],"boundaries":[],"currencies":["XPF"],"isoLang":["fr"]},{"tz":"","subcontinent":"","continent":"","latlng":[-6,147],"nativeName":"Papua Niugini","name":"Papua New Guinea","states":[],"boundaries":[],"currencies":["PGK"],"isoLang":["en"]},{"tz":"","subcontinent":"","continent":"","latlng":[-8,159],"nativeName":"Solomon Islands","name":"Solomon Islands","states":[],"boundaries":[],"currencies":["SDB"],"isoLang":["en"]},{"tz":"","subcontinent":"","continent":"","latlng":[-16,167],"nativeName":"Vanuatu","name":"Vanuatu","states":[],"boundaries":[],"currencies":["VUV"],"isoLang":["bi","en","fr"]}],"boundaries":[]},{"name":"Micronesia","countries":[{"tz":"","subcontinent":"","continent":"","latlng":[13.46666666,144.78333333],"nativeName":"Guam","name":"Guam","states":[],"boundaries":[],"currencies":["USD"],"isoLang":["en","ch","es"]},{"tz":"","subcontinent":"","continent":"","latlng":[1.41666666,173],"nativeName":"Kiribati","name":"Kiribati","states":[],"boundaries":[],"currencies":["AUD"],"isoLang":["en"]},{"tz":"","subcontinent":"","continent":"","latlng":[9,168],"nativeName":"M̧ajeļ","name":"Marshall Islands","states":[],"boundaries":[],"currencies":["USD"],"isoLang":["en","mh"]},{"tz":"","subcontinent":"","continent":"","latlng":[6.91666666,158.25],"nativeName":"Micronesia","name":"Federated States of Micronesia","states":[],"boundaries":[],"currencies":["USD"],"isoLang":["en"]},{"tz":"","subcontinent":"","continent":"","latlng":[-0.53333333,166.91666666],"nativeName":"Nauru","name":"Nauru","states":[],"boundaries":[],"currencies":["AUD"],"isoLang":["en","na"]},{"tz":"","subcontinent":"","continent":"","latlng":[15.2,145.75],"nativeName":"Northern Mariana Islands","name":"Northern Mariana Islands","states":[],"boundaries":[],"currencies":["USD"],"isoLang":["en","ch"]},{"tz":"","subcontinent":"","continent":"","latlng":[7.5,134.5],"nativeName":"Palau","name":"Palau","states":[],"boundaries":[],"currencies":["USD"],"isoLang":["en"]}],"boundaries":[]}],"boundaries":[]},{"name":"Americas","subcontinents":[{"name":"Caribbean","countries":[{"tz":"","subcontinent":"","continent":"","latlng":[18.25,-63.16666666],"nativeName":"Anguilla","name":"Anguilla","states":[],"boundaries":[],"currencies":["XCD"],"isoLang":["en"]},{"tz":"","subcontinent":"","continent":"","latlng":[17.05,-61.8],"nativeName":"Antigua and Barbuda","name":"Antigua and Barbuda","states":[],"boundaries":[],"currencies":["XCD"],"isoLang":["en"]},{"tz":"","subcontinent":"","continent":"","latlng":[12.5,-69.96666666],"nativeName":"Aruba","name":"Aruba","states":[],"boundaries":[],"currencies":["AWG"],"isoLang":["nl","pa"]},{"tz":"","subcontinent":"","continent":"","latlng":[24.25,-76],"nativeName":"Bahamas","name":"The Bahamas","states":[],"boundaries":[],"currencies":["BSD"],"isoLang":["en"]},{"tz":"","subcontinent":"","continent":"","latlng":[13.16666666,-59.53333333],"nativeName":"Barbados","name":"Barbados","states":[],"boundaries":[],"currencies":["BBD"],"isoLang":["en"]},{"tz":"","subcontinent":"","continent":"","latlng":[19.5,-80.5],"nativeName":"Cayman Islands","name":"Cayman Islands","states":[],"boundaries":[],"currencies":["KYD"],"isoLang":["en"]},{"tz":"","subcontinent":"","continent":"","latlng":[21.5,-80],"nativeName":"Cuba","name":"Cuba","states":[],"boundaries":[],"currencies":["CUC","CUP"],"isoLang":["es"]},{"tz":"","subcontinent":"","continent":"","latlng":[15.41666666,-61.33333333],"nativeName":"Dominica","name":"Dominica","states":[],"boundaries":[],"currencies":["XCD"],"isoLang":["en"]},{"tz":"","subcontinent":"","continent":"","latlng":[19,-70.66666666],"nativeName":"República Dominicana","name":"Dominican Republic","states":[],"boundaries":[],"currencies":["DOP"],"isoLang":["es"]},{"tz":"","subcontinent":"","continent":"","latlng":[12.11666666,-61.66666666],"nativeName":"Grenada","name":"Grenada","states":[],"boundaries":[],"currencies":["XCD"],"isoLang":["en"]},{"tz":"","subcontinent":"","continent":"","latlng":[16.25,-61.583333],"nativeName":"Guadeloupe","name":"Guadeloupe","states":[],"boundaries":[],"currencies":["EUR"],"isoLang":["fr"]},{"tz":"","subcontinent":"","continent":"","latlng":[19,-72.41666666],"nativeName":"Haïti","name":"Haiti","states":[],"boundaries":[],"currencies":["HTG","USD"],"isoLang":["fr","ht"]},{"tz":"","subcontinent":"","continent":"","latlng":[18.25,-77.5],"nativeName":"Jamaica","name":"Jamaica","states":[],"boundaries":[],"currencies":["JMD"],"isoLang":["en"]},{"tz":"","subcontinent":"","continent":"","latlng":[14.666667,-61],"nativeName":"Martinique","name":"Martinique","states":[],"boundaries":[],"currencies":["EUR"],"isoLang":["fr"]},{"tz":"","subcontinent":"","continent":"","latlng":[16.75,-62.2],"nativeName":"Montserrat","name":"Montserrat","states":[],"boundaries":[],"currencies":["XCD"],"isoLang":["en"]},{"tz":"","subcontinent":"","continent":"","latlng":[18.25,-66.5],"nativeName":"Puerto Rico","name":"Puerto Rico","states":[],"boundaries":[],"currencies":["USD"],"isoLang":["es","en"]},{"tz":"","subcontinent":"","continent":"","latlng":[17.33333333,-62.75],"nativeName":"Saint Kitts and Nevis","name":"Saint Kitts and Nevis","states":[],"boundaries":[],"currencies":["XCD"],"isoLang":["en"]},{"tz":"","subcontinent":"","continent":"","latlng":[13.88333333,-60.96666666],"nativeName":"Saint Lucia","name":"Saint Lucia","states":[],"boundaries":[],"currencies":["XCD"],"isoLang":["en"]},{"tz":"","subcontinent":"","continent":"","latlng":[13.25,-61.2],"nativeName":"Saint Vincent and the Grenadines","name":"Saint Vincent and the Grenadines","states":[],"boundaries":[],"currencies":["XCD"],"isoLang":["en"]},{"tz":"","subcontinent":"","continent":"","latlng":[11,-61],"nativeName":"Trinidad and Tobago","name":"Trinidad and Tobago","states":[],"boundaries":[],"currencies":["TTD"],"isoLang":["en"]}],"boundaries":[]},{"name":"South America","countries":[{"tz":"","subcontinent":"","continent":"","latlng":[-34,-64],"nativeName":"Argentina","name":"Argentina","states":[],"boundaries":[],"currencies":["ARS"],"isoLang":["es","gn"]},{"tz":"","subcontinent":"","continent":"","latlng":[-17,-65],"nativeName":"Bolivia","name":"Bolivia","states":[],"boundaries":[],"currencies":["BOB","BOV"],"isoLang":["es","ay","qu"]},{"tz":"","subcontinent":"","continent":"","latlng":[-10,-55],"nativeName":"Brasil","name":"Brazil","states":[],"boundaries":[],"currencies":["BRL"],"isoLang":["pt"]},{"tz":"","subcontinent":"","continent":"","latlng":[-30,-71],"nativeName":"Chile","name":"Chile","states":[],"boundaries":[],"currencies":["CLF","CLP"],"isoLang":["es"]},{"tz":"","subcontinent":"","continent":"","latlng":[4,-72],"nativeName":"Colombia","name":"Colombia","states":[],"boundaries":[],"currencies":["COP"],"isoLang":["es"]},{"tz":"","subcontinent":"","continent":"","latlng":[-2,-77.5],"nativeName":"Ecuador","name":"Ecuador","states":[],"boundaries":[],"currencies":["USD"],"isoLang":["es"]},{"tz":"","subcontinent":"","continent":"","latlng":[-51.75,-59],"nativeName":"Falkland Islands","name":"Falkland Islands","states":[],"boundaries":[],"currencies":["FKP"],"isoLang":["en"]},{"tz":"","subcontinent":"","continent":"","latlng":[4,-53],"nativeName":"Guyane française","name":"French Guiana","states":[],"boundaries":[],"currencies":["EUR"],"isoLang":["fr"]},{"tz":"","subcontinent":"","continent":"","latlng":[5,-59],"nativeName":"Guyana","name":"Guyana","states":[],"boundaries":[],"currencies":["GYD"],"isoLang":["en"]},{"tz":"","subcontinent":"","continent":"","latlng":[-23,-58],"nativeName":"Paraguay","name":"Paraguay","states":[],"boundaries":[],"currencies":["PYG"],"isoLang":["es","gn"]},{"tz":"","subcontinent":"","continent":"","latlng":[-10,-76],"nativeName":"Perú","name":"Peru","states":[],"boundaries":[],"currencies":["PEN"],"isoLang":["es"]},{"tz":"","subcontinent":"","continent":"","latlng":[-54.5,-37],"nativeName":"South Georgia","name":"South Georgia","states":[],"boundaries":[],"currencies":["GBP"],"isoLang":["en"]},{"tz":"","subcontinent":"","continent":"","latlng":[4,-56],"nativeName":"Suriname","name":"Suriname","states":[],"boundaries":[],"currencies":["SRD"],"isoLang":["nl"]},{"tz":"","subcontinent":"","continent":"","latlng":[-33,-56],"nativeName":"Uruguay","name":"Uruguay","states":[],"boundaries":[],"currencies":["UYI","UYU"],"isoLang":["es"]},{"tz":"","subcontinent":"","continent":"","latlng":[8,-66],"nativeName":"Venezuela","name":"Venezuela","states":[],"boundaries":[],"currencies":["VEF"],"isoLang":["es"]}],"boundaries":[]},{"name":"Central America","countries":[{"tz":"","subcontinent":"","continent":"","latlng":[17.25,-88.75],"nativeName":"Belize","name":"Belize","states":[],"boundaries":[],"currencies":["BZD"],"isoLang":["en","es"]},{"tz":"","subcontinent":"","continent":"","latlng":[10,-84],"nativeName":"Costa Rica","name":"Costa Rica","states":[],"boundaries":[],"currencies":["CRC"],"isoLang":["es"]},{"tz":"","subcontinent":"","continent":"","latlng":[13.83333333,-88.91666666],"nativeName":"El Salvador","name":"El Salvador","states":[],"boundaries":[],"currencies":["SVC","USD"],"isoLang":["es"]},{"tz":"","subcontinent":"","continent":"","latlng":[15.5,-90.25],"nativeName":"Guatemala","name":"Guatemala","states":[],"boundaries":[],"currencies":["GTQ"],"isoLang":["es"]},{"tz":"","subcontinent":"","continent":"","latlng":[15,-86.5],"nativeName":"Honduras","name":"Honduras","states":[],"boundaries":[],"currencies":["HNL"],"isoLang":["es"]},{"tz":"","subcontinent":"","continent":"","latlng":[23,-102],"nativeName":"México","name":"Mexico","states":[],"boundaries":[],"currencies":["MXN"],"isoLang":["es"]},{"tz":"","subcontinent":"","continent":"","latlng":[13,-85],"nativeName":"Nicaragua","name":"Nicaragua","states":[],"boundaries":[],"currencies":["NIO"],"isoLang":["es"]},{"tz":"","subcontinent":"","continent":"","latlng":[9,-80],"nativeName":"Panamá","name":"Panama","states":[],"boundaries":[],"currencies":["PAB","USD"],"isoLang":["es"]}],"boundaries":[]},{"name":"Northern America","countries":[{"tz":"","subcontinent":"","continent":"","latlng":[32.33333333,-64.75],"nativeName":"Bermuda","name":"Bermuda","states":[],"boundaries":[],"currencies":["BMD"],"isoLang":["en"]},{"tz":"","subcontinent":"","continent":"","latlng":[60,-95],"nativeName":"Canada","name":"Canada","states":[],"boundaries":[],"currencies":["CAD"],"isoLang":["en","fr"]},{"tz":"","subcontinent":"","continent":"","latlng":[72,-40],"nativeName":"Kalaallit Nunaat","name":"Greenland","states":[],"boundaries":[],"currencies":["DKK"],"isoLang":["kl"]},{"tz":"","subcontinent":"","continent":"","latlng":[46.83333333,-56.33333333],"nativeName":"Saint-Pierre-et-Miquelon","name":"Saint Pierre and Miquelon","states":[],"boundaries":[],"currencies":["EUR"],"isoLang":["fr"]},{"tz":"","subcontinent":"","continent":"","latlng":[38,-97],"nativeName":"United States","name":"United States","states":[],"boundaries":[],"currencies":["USD","USN","USS"],"isoLang":["en"]}],"boundaries":[]}],"boundaries":[]},{"subcontinents":[{"countries":[{"tz":"","subcontinent":"","continent":"","states":[],"boundaries":[]}],"boundaries":[]}],"boundaries":[]},{"name":"","subcontinents":[{"name":"","countries":[{"tz":"","subcontinent":"","continent":"","latlng":[-49.25,69.167],"nativeName":"Territoire des Terres australes et antarctiques françaises","name":"French Southern and Antarctic Lands","states":[],"boundaries":[],"currencies":["EUR"],"isoLang":["fr"]},{"tz":"","subcontinent":"","continent":"","latlng":[-53.1,72.51666666],"nativeName":"Heard Island and McDonald Islands","name":"Heard Island and McDonald Islands","states":[],"boundaries":[],"currencies":["AUD"],"isoLang":["en"]}],"boundaries":[]}],"boundaries":[]}]